[
  {
    "OBJECT_NAME": "STARLINK-35148",
    "OBJECT_ID": "25221X",
    "EPOCH": "2025-11-11T06:59:36.734496",
    "MEAN_MOTION": 15.30212593,
    "ECCENTRICITY": 0.0001707,
    "INCLINATION": 53.1623,
    "RA_OF_ASC_NODE": 278.4609,
    "ARG_OF_PERICENTER": 93.4372,
    "MEAN_ANOMALY": 266.6824,
    "EPHEMERIS_TYPE": 0,
    "CLASSIFICATION_TYPE": "U",
    "NORAD_CAT_ID": 65844,
    "ELEMENT_SET_NO": 999,
    "REV_AT_EPOCH": 660,
    "BSTAR": 0.0014819,
    "MEAN_MOTION_DOT": 0.00043808,
    "MEAN_MOTION_DDOT": 0.0,
    "TLE_LINE1": "1 65844U 25221X   25315.29139739  .00043808  00000+0  14819-2 0  9995",
    "TLE_LINE2": "2 65844  53.1623 278.4609 0001707  93.4372 266.6824 15.30212593  6605",
    "COMMENT": "Grouped by shell and plane from TLE"
  },
  {
    "OBJECT_NAME": "STARLINK-35302",
    "OBJECT_ID": "25221Y",
    "EPOCH": "2025-11-11T08:00:03.000384",
    "MEAN_MOTION": 15.30143503,
    "ECCENTRICITY": 0.0001274,
    "INCLINATION": 53.1583,
    "RA_OF_ASC_NODE": 278.06,
    "ARG_OF_PERICENTER": 71.0824,
    "MEAN_ANOMALY": 265.0865,
    "EPHEMERIS_TYPE": 0,
    "CLASSIFICATION_TYPE": "U",
    "NORAD_CAT_ID": 65845,
    "ELEMENT_SET_NO": 999,
    "REV_AT_EPOCH": 602,
    "BSTAR": 0.0024990000000000004,
    "MEAN_MOTION_DOT": 0.00074268,
    "MEAN_MOTION_DDOT": 0.0,
    "TLE_LINE1": "1 65845U 25221Y   25315.33336806  .00074268  00000+0  24990-2 0  9990",
    "TLE_LINE2": "2 65845  53.1583 278.0600 0001274  71.0824 265.0865 15.30143503  6029",
    "COMMENT": "Grouped by shell and plane from TLE"
  },
  {
    "OBJECT_NAME": "STARLINK-35290",
    "OBJECT_ID": "25221Z",
    "EPOCH": "2025-11-11T08:00:03.000384",
    "MEAN_MOTION": 15.30141799,
    "ECCENTRICITY": 0.0001567,
    "INCLINATION": 53.1582,
    "RA_OF_ASC_NODE": 277.9786,
    "ARG_OF_PERICENTER": 92.1878,
    "MEAN_ANOMALY": 284.691,
    "EPHEMERIS_TYPE": 0,
    "CLASSIFICATION_TYPE": "U",
    "NORAD_CAT_ID": 65846,
    "ELEMENT_SET_NO": 999,
    "REV_AT_EPOCH": 602,
    "BSTAR": 0.002754,
    "MEAN_MOTION_DOT": 0.00081961,
    "MEAN_MOTION_DDOT": 0.0,
    "TLE_LINE1": "1 65846U 25221Z   25315.33336806  .00081961  00000+0  27540-2 0  9993",
    "TLE_LINE2": "2 65846  53.1582 277.9786 0001567  92.1878 284.6910 15.30141799  6023",
    "COMMENT": "Grouped by shell and plane from TLE"
  },
  {
    "OBJECT_NAME": "STARLINK-35262",
    "OBJECT_ID": "25221AA",
    "EPOCH": "2025-11-11T04:29:29.589792",
    "MEAN_MOTION": 15.30204988,
    "ECCENTRICITY": 0.0001511,
    "INCLINATION": 53.1597,
    "RA_OF_ASC_NODE": 279.2318,
    "ARG_OF_PERICENTER": 92.4533,
    "MEAN_ANOMALY": 267.6641,
    "EPHEMERIS_TYPE": 0,
    "CLASSIFICATION_TYPE": "U",
    "NORAD_CAT_ID": 65847,
    "ELEMENT_SET_NO": 999,
    "REV_AT_EPOCH": 793,
    "BSTAR": 0.0015975,
    "MEAN_MOTION_DOT": 0.00047262,
    "MEAN_MOTION_DDOT": 0.0,
    "TLE_LINE1": "1 65847U 25221AA  25315.18714803  .00047262  00000+0  15975-2 0  9999",
    "TLE_LINE2": "2 65847  53.1597 279.2318 0001511  92.4533 267.6641 15.30204988  7939",
    "COMMENT": "Grouped by shell and plane from TLE"
  },
  {
    "OBJECT_NAME": "STARLINK-35308",
    "OBJECT_ID": "25221AB",
    "EPOCH": "2025-11-11T08:00:03.000384",
    "MEAN_MOTION": 15.30140449,
    "ECCENTRICITY": 0.0001612,
    "INCLINATION": 53.158,
    "RA_OF_ASC_NODE": 278.0011,
    "ARG_OF_PERICENTER": 90.0502,
    "MEAN_ANOMALY": 275.2142,
    "EPHEMERIS_TYPE": 0,
    "CLASSIFICATION_TYPE": "U",
    "NORAD_CAT_ID": 65848,
    "ELEMENT_SET_NO": 999,
    "REV_AT_EPOCH": 602,
    "BSTAR": 0.0025984000000000003,
    "MEAN_MOTION_DOT": 0.00077258,
    "MEAN_MOTION_DDOT": 0.0,
    "TLE_LINE1": "1 65848U 25221AB  25315.33336806  .00077258  00000+0  25984-2 0  9999",
    "TLE_LINE2": "2 65848  53.1580 278.0011 0001612  90.0502 275.2142 15.30140449  6022",
    "COMMENT": "Grouped by shell and plane from TLE"
  },
  {
    "OBJECT_NAME": "STARLINK-35231",
    "OBJECT_ID": "25221AC",
    "EPOCH": "2025-11-11T04:34:03.141696",
    "MEAN_MOTION": 15.30208033,
    "ECCENTRICITY": 0.0001371,
    "INCLINATION": 53.1588,
    "RA_OF_ASC_NODE": 279.2505,
    "ARG_OF_PERICENTER": 91.4654,
    "MEAN_ANOMALY": 268.6504,
    "EPHEMERIS_TYPE": 0,
    "CLASSIFICATION_TYPE": "U",
    "NORAD_CAT_ID": 65849,
    "ELEMENT_SET_NO": 999,
    "REV_AT_EPOCH": 793,
    "BSTAR": 0.0011918,
    "MEAN_MOTION_DOT": 0.00035113,
    "MEAN_MOTION_DDOT": 0.0,
    "TLE_LINE1": "1 65849U 25221AC  25315.19031414  .00035113  00000+0  11918-2 0  9997",
    "TLE_LINE2": "2 65849  53.1588 279.2505 0001371  91.4654 268.6504 15.30208033  7930",
    "COMMENT": "Grouped by shell and plane from TLE"
  },
  {
    "OBJECT_NAME": "STARLINK-35252",
    "OBJECT_ID": "25221AD",
    "EPOCH": "2025-11-11T04:24:56.162304",
    "MEAN_MOTION": 15.30198167,
    "ECCENTRICITY": 0.0001021,
    "INCLINATION": 53.1603,
    "RA_OF_ASC_NODE": 279.2112,
    "ARG_OF_PERICENTER": 101.5532,
    "MEAN_ANOMALY": 258.5583,
    "EPHEMERIS_TYPE": 0,
    "CLASSIFICATION_TYPE": "U",
    "NORAD_CAT_ID": 65850,
    "ELEMENT_SET_NO": 999,
    "REV_AT_EPOCH": 793,
    "BSTAR": 0.0016393,
    "MEAN_MOTION_DOT": 0.00048506,
    "MEAN_MOTION_DDOT": 0.0,
    "TLE_LINE1": "1 65850U 25221AD  25315.18398336  .00048506  00000+0  16393-2 0  9999",
    "TLE_LINE2": "2 65850  53.1603 279.2112 0001021 101.5532 258.5583 15.30198167  7935",
    "COMMENT": "Grouped by shell and plane from TLE"
  }
]